SAC-D
1 37673U 11024A   13320.44085671 +.00000000 +00000+0 +13500-4 6  9165
2 37673  98.0124 325.7055 0001389  84.1891 148.6750 14.72347375130469
